[{"OBJECT_NAME":"OBJECT D","OBJECT_ID":"2024-085D","EPOCH":"2026-03-09T22:53:13.410816","MEAN_MOTION":15.33413141,"ECCENTRICITY":0.00152451,"INCLINATION":97.3312,"RA_OF_ASC_NODE":145.3953,"ARG_OF_PERICENTER":54.9672,"MEAN_ANOMALY":305.2998,"EPHEMERIS_TYPE":0,"CLASSIFICATION_TYPE":"U","NORAD_CAT_ID":59680,"ELEMENT_SET_NO":999,"REV_AT_EPOCH":10244,"BSTAR":0.00049264705,"MEAN_MOTION_DOT":0.00015903,"MEAN_MOTION_DDOT":0},{"OBJECT_NAME":"STARLINK-33825","OBJECT_ID":"2025-071N","EPOCH":"2026-03-09T11:53:26.907648","MEAN_MOTION":15.30183313,"ECCENTRICITY":0.00011517,"INCLINATION":53.158,"RA_OF_ASC_NODE":140.5753,"ARG_OF_PERICENTER":70.5737,"MEAN_ANOMALY":289.5389,"EPHEMERIS_TYPE":0,"CLASSIFICATION_TYPE":"U","NORAD_CAT_ID":63505,"ELEMENT_SET_NO":999,"REV_AT_EPOCH":5274,"BSTAR":0.0009884417,"MEAN_MOTION_DOT":0.00029015,"MEAN_MOTION_DDOT":0}]
